[{"OBJECT_NAME":"STARLINK-30483","OBJECT_ID":"2023-147B","EPOCH":"2026-03-09T07:50:44.504736","MEAN_MOTION":15.27496247,"ECCENTRICITY":0.00011429,"INCLINATION":42.9991,"RA_OF_ASC_NODE":181.673,"ARG_OF_PERICENTER":141.0292,"MEAN_ANOMALY":219.0642,"EPHEMERIS_TYPE":0,"CLASSIFICATION_TYPE":"U","NORAD_CAT_ID":57914,"ELEMENT_SET_NO":999,"REV_AT_EPOCH":13825,"BSTAR":0.00063040794,"MEAN_MOTION_DOT":0.00017081,"MEAN_MOTION_DDOT":0},{"OBJECT_NAME":"TANSTAAFL-2","OBJECT_ID":"2024-247B","EPOCH":"2026-03-08T04:58:51.015360","MEAN_MOTION":15.28016845,"ECCENTRICITY":0.00030723,"INCLINATION":44.988,"RA_OF_ASC_NODE":125.0934,"ARG_OF_PERICENTER":298.8909,"MEAN_ANOMALY":61.1666,"EPHEMERIS_TYPE":0,"CLASSIFICATION_TYPE":"U","NORAD_CAT_ID":62378,"ELEMENT_SET_NO":999,"REV_AT_EPOCH":6750,"BSTAR":0.00050871624,"MEAN_MOTION_DOT":0.00013897,"MEAN_MOTION_DDOT":0}]
