STARLINK-30483          
1 57914U 23147B   26068.32690399  .00017081  00000+0  63041-3 0  9999
2 57914  42.9991 181.6730 0001142 141.0292 219.0642 15.27496247138255
TANSTAAFL-2             
1 62378U 24247B   26067.20753490  .00013897  00000+0  50872-3 0  9998
2 62378  44.9880 125.0934 0003072 298.8909  61.1666 15.28016845 67506
